[Satellite]
VERSION=1.1
NAME=SO-115
NICKNAME=SO-115
TLE1=1 51080U 22002DA  22335.46165701  .00009624  00000-0  45521-3 0  9996
TLE2=2 51080  97.4896  41.9027 0011671 229.1734 130.8489 15.19526132 48781
STATUS=0
